     3.04           N: GNSS NAV DATA    M: Mixed            RINEX VERSION / TYPE
CONVBIN 2.4.3                           20250626 123640 UTC PGM / RUN BY / DATE 
format: u-blox UBX                                          COMMENT             
log: D:\My_GPsense_data\250622_063057_1432walkarounds2.ubx  COMMENT             
                                                            END OF HEADER       
C27 2025 06 22 06 00 00  .493224477395D-03  .484856599314D-11  .000000000000D+00
      .100000000000D+01  .331093750000D+02  .415088718683D-08  .701370818750D+00
      .154227018356D-05  .666298787110D-03 -.556930899620D-06  .528261861420D+04
      .216000000000D+05 -.419095158577D-07  .775020297152D+00 -.530853867531D-07
      .953762012633D+00  .372531250000D+03  .156124281489D+01 -.740030825254D-08
     -.113576159474D-09  .000000000000D+00  .101600000000D+04  .000000000000D+00
      .200000000000D+01  .000000000000D+00 -.430000000000D-08 -.430000000000D-08
      .234900000000D+05  .100000000000D+01
C41 2025 06 22 06 00 00 -.915496028028D-03 -.476596540011D-11  .000000000000D+00
      .100000000000D+01 -.430625000000D+02  .315298847748D-08  .207056869559D+01
     -.214762985706D-05  .154698081315D-02  .113425776362D-04  .528262924576D+04
      .216000000000D+05 -.461004674435D-07  .286780959923D+01  .554136931896D-07
      .981950957696D+00  .142281250000D+03 -.112199463958D+01 -.631133432098D-08
      .636812240072D-09  .000000000000D+00  .101600000000D+04  .000000000000D+00
      .200000000000D+01  .000000000000D+00 -.233000000000D-07 -.233000000000D-07
      .234900000000D+05  .100000000000D+01
C32 2025 06 22 06 00 00 -.947657390498D-03  .537347943919D-12  .000000000000D+00
      .100000000000D+01 -.555312500000D+02  .314548816506D-08  .456391203806D+00
     -.259838998318D-05  .591272837482D-03  .116289593279D-04  .528262932014D+04
      .216000000000D+05 -.931322574615D-09  .286517894483D+01  .214204192162D-07
      .983099777023D+00  .135765625000D+03 -.330406982434D+00 -.635240746041D-08
      .702172105430D-09  .000000000000D+00  .101600000000D+04  .000000000000D+00
      .200000000000D+01  .000000000000D+00 -.690000000000D-08 -.690000000000D-08
      .234900000000D+05  .100000000000D+01
C33 2025 06 22 06 00 00 -.959164462984D-03  .186517468137D-13  .000000000000D+00
      .100000000000D+01 -.400468750000D+02  .317977530755D-08  .141704412089D+01
     -.212201848626D-05  .604777596891D-03  .110920518637D-04  .528263077736D+04
      .216000000000D+05 -.456348061562D-07  .286507042118D+01 -.437721610069D-07
      .983132511278D+00  .146328125000D+03  .283772227658D+00 -.635847914189D-08
      .571452374714D-09  .000000000000D+00  .101600000000D+04  .000000000000D+00
      .200000000000D+01  .000000000000D+00 -.444000000000D-07 -.444000000000D-07
      .234900000000D+05  .100000000000D+01
C38 2025 06 22 06 00 00  .232195830904D-03  .207833750210D-11  .000000000000D+00
      .100000000000D+01 -.673203125000D+03  .725030200418D-10 -.241331970324D+01
     -.222143717110D-04  .223163503688D-02  .250972807407D-04  .649296717453D+04
      .216000000000D+05 -.482425093651D-06  .228619352363D+01 -.335276126862D-07
      .101568212840D+01 -.511890625000D+03 -.254356145656D+01 -.146970407622D-08
      .187507810453D-09  .000000000000D+00  .101600000000D+04  .000000000000D+00
      .200000000000D+01  .000000000000D+00  .300000000000D-08  .300000000000D-08
      .234900000000D+05  .100000000000D+01
C08 2025 06 22 06 00 00 -.584881752729D-03 -.643360920094D-10  .000000000000D+00
      .100000000000D+01 -.648093750000D+03 -.281797452281D-09 -.189440710971D+01
     -.213952735066D-04  .307531980798D-02  .278386287391D-04  .649364627647D+04
      .216000000000D+05 -.462867319584D-06  .232445445486D+01  .204425305128D-06
      .108045557372D+01 -.580046875000D+03  .302399347635D+01 -.132934108668D-08
      .260725145963D-09  .000000000000D+00  .101600000000D+04  .000000000000D+00
      .200000000000D+01  .000000000000D+00  .113000000000D-07 -.700000000000D-09
      .234900000000D+05  .000000000000D+00
C13 2025 06 22 06 00 00 -.423090532422D-04 -.101429975530D-10  .000000000000D+00
      .100000000000D+01 -.681562500000D+03 -.160363822654D-09 -.303247456251D+01
     -.222772359848D-04  .526460027322D-02  .277762301266D-04  .649319042397D+04
      .216000000000D+05 -.350177288055D-06  .229076910275D+01  .279862433672D-06
      .104246079410D+01 -.594437500000D+03 -.231055019825D+01 -.143041672546D-08
      .246795994329D-09  .000000000000D+00  .101600000000D+04  .000000000000D+00
      .200000000000D+01  .000000000000D+00 -.950000000000D-08  .280000000000D-08
      .234900000000D+05  .000000000000D+00
C10 2025 06 22 06 00 00 -.376120442525D-04 -.205639949513D-10  .000000000000D+00
      .100000000000D+01  .866062500000D+03  .148899059386D-08 -.688996468703D+00
      .282372348011D-04  .107601403724D-01 -.232923775911D-05  .649314056587D+04
      .216000000000D+05  .259838998318D-06  .970068775715D-01 -.246800482273D-06
      .844331727520D+00  .275718750000D+03 -.245786167617D+01 -.252581949623D-08
      .189650756858D-09  .000000000000D+00  .101600000000D+04  .000000000000D+00
      .200000000000D+01  .000000000000D+00  .610000000000D-08  .300000000000D-08
      .234900000000D+05  .000000000000D+00
C07 2025 06 22 06 00 00  .576023361646D-03  .277724510056D-10  .000000000000D+00
      .100000000000D+01  .837593750000D+03  .156577950672D-08 -.350010023254D+00
      .272975303233D-04  .465994514525D-02 -.155996531248D-05  .649310105515D+04
      .216000000000D+05  .349711626768D-06  .102174884383D+00 -.151339918375D-06
      .841944094534D+00  .240937500000D+03 -.259447696565D+01 -.245974531541D-08
      .163221084528D-09  .000000000000D+00  .101600000000D+04  .000000000000D+00
      .200000000000D+01  .000000000000D+00  .151000000000D-07  .900000000000D-09
      .234900000000D+05  .000000000000D+00
S29 2025  6 22  6 32 16  .123865902424D-06  .109139364213D-10  .235430000000D+05
     -.253762147200D+05  .000000000000D+00  .000000000000D+00  .100000000000D+01
      .336753743200D+05  .000000000000D+00  .000000000000D+00  .819200000000D+04
      .000000000000D+00  .000000000000D+00  .000000000000D+00  .000000000000D+00
S37 2025  6 22  6 32 32 -.842846930027D-07  .000000000000D+00  .235600000000D+05
     -.254151820000D+05 -.708750000000D-03  .000000000000D+00  .100000000000D+01
      .336383893600D+05 -.787500000000D-04  .000000000000D+00  .819200000000D+04
     -.323724000000D+02 -.108000000000D-03  .000000000000D+00  .000000000000D+00
S27 2025  6 22  6 33 36  .000000000000D+00  .000000000000D+00  .235910000000D+05
      .241387640800D+05  .199750000000D-02  .750000000000D-07  .100000000000D+01
      .345821496000D+05 -.180625000000D-03 -.150000000000D-06  .819200000000D+04
     -.318816800000D+03  .598840000000D-01  .168750000000D-05  .000000000000D+00
S29 2025  6 22  6 33 20  .123865902424D-06  .109139364213D-10  .236030000000D+05
     -.253762147200D+05  .000000000000D+00  .000000000000D+00  .100000000000D+01
      .336753743200D+05  .000000000000D+00  .000000000000D+00  .819200000000D+04
      .000000000000D+00  .000000000000D+00  .000000000000D+00  .000000000000D+00
